{
  "norad_id": 47844,
  "name": "STARLINK-2446",
  "history": [
    {
      "epoch": "2026-03-28T21:45:27.146880Z",
      "apogee_km": 473.66877028859653,
      "perigee_km": 471.8012225823677,
      "latitude_deg": -1.5548496842320284e-05,
      "longitude_deg": 3.8444900375389763,
      "height_km": 473.6660072815615,
      "semi_major_axis_km": 6850.871996435481,
      "eccentricity": 0.0001363,
      "inclination_deg": 53.1607,
      "raan_deg": 156.5279,
      "arg_perigee_deg": 92.0045,
      "mean_anomaly_deg": 268.1112,
      "mean_motion_rev_day": 15.31030993
    },
    {
      "epoch": "2026-03-28T21:45:27.147744Z",
      "apogee_km": 473.6685647624363,
      "perigee_km": 471.80142810852703,
      "latitude_deg": -1.279566471447603e-05,
      "longitude_deg": 3.8444884786183424,
      "height_km": 473.666000094768,
      "semi_major_axis_km": 6850.871996435481,
      "eccentricity": 0.00013627,
      "inclination_deg": 53.1607,
      "raan_deg": 156.5279,
      "arg_perigee_deg": 92.0045,
      "mean_anomaly_deg": 268.1112,
      "mean_motion_rev_day": 15.31030993
    }
  ]
}